STARLINK-37024
1 68106U 26044F   26090.83335647 -.01901956  00000+0 -24083-1 0  9993
2 68106  97.2851  52.0429 0001697  90.6436 300.3442 15.62615977  4917
